{"type":"FeatureCollection","features":[{"type":"Feature","geometry":{"type":"LineString","coordinates":[[-74.808676,4.288556],[-74.808914,4.289548],[-74.809332,4.290877],[-74.809491,4.291492],[-74.809412,4.29177],[-74.80973,4.292781],[-74.810128,4.293496],[-74.810804,4.29421],[-74.810168,4.295222],[-74.809133,4.296769],[-74.808775,4.297166],[-74.807542,4.299229],[-74.806428,4.301411],[-74.805572,4.308315],[-74.804239,4.308438],[-74.803194,4.304162],[-74.80274,4.304162],[-74.802775,4.304857],[-74.800719,4.305344],[-74.799255,4.306491],[-74.798418,4.307082],[-74.797825,4.306387],[-74.798732,4.30517],[-74.796082,4.30305],[-74.796605,4.301277],[-74.798627,4.299887],[-74.800719,4.29933],[-74.800913,4.297225],[-74.80278,4.295571],[-74.803989,4.294357],[-74.804994,4.292982],[-74.806958,4.29057],[-74.807381,4.289068],[-74.807967,4.288722],[-74.808719,4.2885]]},"properties":{}},{"type":"Feature","properties":{},"geometry":{"type":"Point","coordinates":[-74.798582,4.305553]}},{"type":"Feature","properties":{},"geometry":{"type":"Point","coordinates":[-74.805996,4.304379]}},{"type":"Feature","properties":{},"geometry":{"type":"Point","coordinates":[-74.8027,4.297266]}},{"type":"Feature","properties":{},"geometry":{"type":"Point","coordinates":[-74.799841,4.304823]}},{"type":"Feature","properties":{},"geometry":{"type":"Point","coordinates":[-74.801472,4.297966]}},{"type":"Feature","properties":{},"geometry":{"type":"Point","coordinates":[-74.804179,4.306212]}},{"type":"Feature","properties":{},"geometry":{"type":"Point","coordinates":[-74.799954,4.299625]}},{"type":"Feature","properties":{},"geometry":{"type":"Point","coordinates":[-74.807547,4.292478]}},{"type":"Feature","properties":{},"geometry":{"type":"Point","coordinates":[-74.801977,4.301185]}},{"type":"Feature","properties":{},"geometry":{"type":"Point","coordinates":[-74.805294,4.300203]}}]}