{"type":"FeatureCollection","features":[{"type":"Feature","geometry":{"type":"LineString","coordinates":[[-74.80857,4.288406],[-74.807215,4.286782],[-74.806796,4.286315],[-74.805199,4.286026],[-74.804618,4.28601],[-74.803522,4.286621],[-74.802135,4.286782],[-74.80157,4.287216],[-74.801102,4.28728],[-74.799457,4.287859],[-74.797909,4.288567],[-74.796635,4.288648],[-74.796393,4.288744],[-74.795764,4.289419],[-74.79449,4.290851],[-74.794232,4.291719],[-74.793151,4.292556],[-74.793264,4.29307],[-74.794329,4.295145],[-74.794248,4.296448],[-74.794522,4.297734],[-74.794748,4.298329],[-74.795683,4.298281],[-74.796457,4.298153],[-74.797635,4.29767],[-74.797844,4.29796],[-74.80057,4.296802],[-74.800877,4.297236],[-74.802989,4.295322],[-74.803957,4.294437],[-74.805312,4.292604],[-74.806989,4.290497],[-74.807344,4.288985],[-74.808586,4.288374]]},"properties":{}},{"type":"Feature","properties":{},"geometry":{"type":"Point","coordinates":[-74.802351,4.287704]}},{"type":"Feature","properties":{},"geometry":{"type":"Point","coordinates":[-74.795281,4.297896]}},{"type":"Feature","properties":{},"geometry":{"type":"Point","coordinates":[-74.802741,4.292969]}},{"type":"Feature","properties":{},"geometry":{"type":"Point","coordinates":[-74.807149,4.2881]}},{"type":"Feature","properties":{},"geometry":{"type":"Point","coordinates":[-74.798157,4.289662]}},{"type":"Feature","properties":{},"geometry":{"type":"Point","coordinates":[-74.795552,4.292157]}},{"type":"Feature","properties":{},"geometry":{"type":"Point","coordinates":[-74.799053,4.296717]}},{"type":"Feature","properties":{},"geometry":{"type":"Point","coordinates":[-74.798414,4.293587]}},{"type":"Feature","properties":{},"geometry":{"type":"Point","coordinates":[-74.804364,4.289704]}},{"type":"Feature","properties":{},"geometry":{"type":"Point","coordinates":[-74.804985,4.287182]}},{"type":"Feature","properties":{},"geometry":{"type":"Point","coordinates":[-74.799843,4.289798]}},{"type":"Feature","properties":{},"geometry":{"type":"Point","coordinates":[-74.79723,4.296219]}},{"type":"Feature","properties":{},"geometry":{"type":"Point","coordinates":[-74.803803,4.287406]}},{"type":"Feature","properties":{},"geometry":{"type":"Point","coordinates":[-74.794834,4.294981]}}]}