{"type":"FeatureCollection","features":[{"type":"Feature","geometry":{"type":"LineString","coordinates":[[-74.804259,4.308433],[-74.8051,4.311421],[-74.805043,4.312522],[-74.808598,4.314135],[-74.808127,4.315371],[-74.818061,4.319512],[-74.818113,4.319548],[-74.818075,4.318844],[-74.818331,4.318279],[-74.818506,4.318055],[-74.819275,4.317602],[-74.819271,4.316928],[-74.819147,4.316812],[-74.819184,4.316551],[-74.818899,4.316296],[-74.818078,4.316334],[-74.821218,4.314779],[-74.822279,4.313353],[-74.823674,4.314065],[-74.823958,4.314017],[-74.824121,4.31378],[-74.823985,4.313587],[-74.823848,4.313802],[-74.822966,4.31303],[-74.824006,4.3119],[-74.824514,4.310671],[-74.824966,4.309805],[-74.82539,4.309215],[-74.825201,4.308737],[-74.825212,4.307825],[-74.825796,4.307089],[-74.825461,4.306529],[-74.82575,4.305827],[-74.826783,4.305299],[-74.827923,4.304527],[-74.827563,4.30425],[-74.827154,4.304634],[-74.826816,4.304857],[-74.826358,4.305126],[-74.82672,4.304212],[-74.827887,4.302236],[-74.828478,4.302525],[-74.828757,4.302298],[-74.828703,4.301828],[-74.829214,4.301208],[-74.82964,4.300964],[-74.829322,4.300507],[-74.829098,4.300383],[-74.829152,4.300034],[-74.829998,4.298736],[-74.830535,4.297238],[-74.830546,4.296225],[-74.830381,4.295261],[-74.829256,4.295729],[-74.82924,4.295148],[-74.828944,4.294501],[-74.828513,4.294165],[-74.827456,4.295368],[-74.826857,4.295414],[-74.826181,4.295377],[-74.825723,4.295117],[-74.825065,4.295604],[-74.826235,4.294039],[-74.825727,4.292688],[-74.82613,4.29236],[-74.823584,4.288745],[-74.822402,4.287731],[-74.82129,4.288703],[-74.820568,4.289425],[-74.819396,4.290175],[-74.818308,4.291332],[-74.817108,4.291969],[-74.81574,4.292878],[-74.815244,4.293552],[-74.813635,4.294251],[-74.812766,4.294958],[-74.811174,4.294234],[-74.810603,4.294498],[-74.809426,4.296259],[-74.808797,4.297175],[-74.807988,4.298439],[-74.806482,4.301289],[-74.805739,4.308031],[-74.804255,4.308442]]},"properties":{}},{"type":"Feature","properties":{},"geometry":{"type":"Point","coordinates":[-74.817209,4.29569]}},{"type":"Feature","properties":{},"geometry":{"type":"Point","coordinates":[-74.815771,4.296862]}},{"type":"Feature","properties":{},"geometry":{"type":"Point","coordinates":[-74.820459,4.291618]}},{"type":"Feature","properties":{},"geometry":{"type":"Point","coordinates":[-74.828124,4.296136]}},{"type":"Feature","properties":{},"geometry":{"type":"Point","coordinates":[-74.813481,4.299166]}},{"type":"Feature","properties":{},"geometry":{"type":"Point","coordinates":[-74.815503,4.300381]}},{"type":"Feature","properties":{},"geometry":{"type":"Point","coordinates":[-74.823339,4.29556]}},{"type":"Feature","properties":{},"geometry":{"type":"Point","coordinates":[-74.820836,4.295853]}},{"type":"Feature","properties":{},"geometry":{"type":"Point","coordinates":[-74.80881,4.303216]}},{"type":"Feature","properties":{},"geometry":{"type":"Point","coordinates":[-74.817812,4.298916]}},{"type":"Feature","properties":{},"geometry":{"type":"Point","coordinates":[-74.823033,4.294599]}},{"type":"Feature","properties":{},"geometry":{"type":"Point","coordinates":[-74.821017,4.294925]}},{"type":"Feature","properties":{},"geometry":{"type":"Point","coordinates":[-74.809441,4.299972]}},{"type":"Feature","properties":{},"geometry":{"type":"Point","coordinates":[-74.817933,4.310053]}},{"type":"Feature","properties":{},"geometry":{"type":"Point","coordinates":[-74.819724,4.291696]}},{"type":"Feature","properties":{},"geometry":{"type":"Point","coordinates":[-74.814227,4.297669]}},{"type":"Feature","properties":{},"geometry":{"type":"Point","coordinates":[-74.80631,4.30485]}},{"type":"Feature","properties":{},"geometry":{"type":"Point","coordinates":[-74.817674,4.318373]}},{"type":"Feature","properties":{},"geometry":{"type":"Point","coordinates":[-74.830493,4.296451]}},{"type":"Feature","properties":{},"geometry":{"type":"Point","coordinates":[-74.829436,4.29759]}},{"type":"Feature","properties":{},"geometry":{"type":"Point","coordinates":[-74.819064,4.296301]}},{"type":"Feature","properties":{},"geometry":{"type":"Point","coordinates":[-74.810175,4.303305]}},{"type":"Feature","properties":{},"geometry":{"type":"Point","coordinates":[-74.813999,4.295546]}},{"type":"Feature","properties":{},"geometry":{"type":"Point","coordinates":[-74.808061,4.309687]}},{"type":"Feature","properties":{},"geometry":{"type":"Point","coordinates":[-74.808791,4.309215]}},{"type":"Feature","properties":{},"geometry":{"type":"Point","coordinates":[-74.817454,4.315064]}},{"type":"Feature","properties":{},"geometry":{"type":"Point","coordinates":[-74.825944,4.297331]}},{"type":"Feature","properties":{},"geometry":{"type":"Point","coordinates":[-74.827289,4.296763]}},{"type":"Feature","properties":{},"geometry":{"type":"Point","coordinates":[-74.817472,4.31088]}},{"type":"Feature","properties":{},"geometry":{"type":"Point","coordinates":[-74.815077,4.307259]}},{"type":"Feature","properties":{},"geometry":{"type":"Point","coordinates":[-74.810211,4.310273]}}]}