{"type":"FeatureCollection","features":[{"type":"Feature","geometry":{"type":"LineString","coordinates":[[-74.816606,4.318823],[-74.816173,4.319995],[-74.815092,4.319587],[-74.815544,4.320448],[-74.814773,4.32049],[-74.814722,4.321351],[-74.813946,4.320928],[-74.814458,4.322454],[-74.814602,4.32373],[-74.814354,4.325072],[-74.813704,4.326599],[-74.812419,4.328494],[-74.811602,4.329081],[-74.810851,4.329622],[-74.808721,4.330454],[-74.810593,4.331643],[-74.810472,4.332784],[-74.807284,4.33505],[-74.807607,4.336818],[-74.807124,4.338798],[-74.807532,4.340465],[-74.808912,4.340955],[-74.809613,4.340386],[-74.81136,4.340047],[-74.816818,4.340685],[-74.816533,4.343571],[-74.810719,4.342818],[-74.810206,4.342278],[-74.809821,4.343001],[-74.809082,4.343056],[-74.808294,4.342812],[-74.804116,4.342041],[-74.796973,4.340054],[-74.800863,4.32989],[-74.800239,4.329425],[-74.800798,4.327925],[-74.799801,4.327315],[-74.797353,4.32645],[-74.797727,4.325526],[-74.796668,4.32507],[-74.796054,4.325512],[-74.794274,4.325088],[-74.791734,4.324338],[-74.789998,4.323881],[-74.78963,4.323877],[-74.788618,4.320231],[-74.789319,4.319084],[-74.790147,4.31771],[-74.792106,4.315926],[-74.793433,4.314911],[-74.794217,4.312638],[-74.795509,4.311183],[-74.797208,4.309367],[-74.79826,4.308171],[-74.798453,4.307738],[-74.798438,4.307106],[-74.80074,4.305295],[-74.802724,4.30485],[-74.802728,4.304261],[-74.803209,4.304147],[-74.805211,4.3114],[-74.805018,4.312569],[-74.808655,4.31416],[-74.808169,4.315339],[-74.816604,4.31882]]},"properties":{}},{"type":"Feature","properties":{"visibility":false},"geometry":{"type":"Point","coordinates":[-74.806586,4.326158]}},{"type":"Feature","properties":{"visibility":false},"geometry":{"type":"Point","coordinates":[-74.794514,4.314905]}},{"type":"Feature","properties":{"visibility":false},"geometry":{"type":"Point","coordinates":[-74.797569,4.319076]}},{"type":"Feature","properties":{"visibility":false},"geometry":{"type":"Point","coordinates":[-74.796419,4.319828]}},{"type":"Feature","properties":{"visibility":false},"geometry":{"type":"Point","coordinates":[-74.80399,4.325207]}},{"type":"Feature","properties":{"visibility":false},"geometry":{"type":"Point","coordinates":[-74.807176,4.324207]}},{"type":"Feature","properties":{"visibility":false},"geometry":{"type":"Point","coordinates":[-74.797944,4.312691]}},{"type":"Feature","properties":{"visibility":false},"geometry":{"type":"Point","coordinates":[-74.803304,4.304516]}},{"type":"Feature","properties":{"visibility":false},"geometry":{"type":"Point","coordinates":[-74.809028,4.342512]}},{"type":"Feature","properties":{"visibility":false},"geometry":{"type":"Point","coordinates":[-74.798124,4.316014]}},{"type":"Feature","properties":{"visibility":false},"geometry":{"type":"Point","coordinates":[-74.799501,4.326598]}},{"type":"Feature","properties":{"visibility":false},"geometry":{"type":"Point","coordinates":[-74.804067,4.312039]}},{"type":"Feature","properties":{"visibility":false},"geometry":{"type":"Point","coordinates":[-74.80024,4.316177]}},{"type":"Feature","properties":{"visibility":false},"geometry":{"type":"Point","coordinates":[-74.803495,4.316697]}},{"type":"Feature","properties":{"visibility":false},"geometry":{"type":"Point","coordinates":[-74.797795,4.311132]}},{"type":"Feature","properties":{"visibility":false},"geometry":{"type":"Point","coordinates":[-74.807421,4.327836]}},{"type":"Feature","properties":{"visibility":false},"geometry":{"type":"Point","coordinates":[-74.802775,4.312036]}},{"type":"Feature","properties":{"visibility":false},"geometry":{"type":"Point","coordinates":[-74.79901,4.3176]}},{"type":"Feature","properties":{"visibility":false},"geometry":{"type":"Point","coordinates":[-74.798848,4.309766]}},{"type":"Feature","properties":{"visibility":false},"geometry":{"type":"Point","coordinates":[-74.797692,4.314642]}},{"type":"Feature","properties":{"visibility":false},"geometry":{"type":"Point","coordinates":[-74.79786,4.326396]}},{"type":"Feature","properties":{"visibility":false},"geometry":{"type":"Point","coordinates":[-74.799403,4.314949]}},{"type":"Feature","properties":{"visibility":false},"geometry":{"type":"Point","coordinates":[-74.80435,4.324975]}},{"type":"Feature","properties":{},"geometry":{"type":"Point","coordinates":[-74.80202,4.31878]}}]}