{"type":"FeatureCollection","features":[{"type":"Feature","properties":{},"geometry":{"type":"Point","coordinates":[-74.795106,4.302889]}},{"type":"Feature","properties":{},"geometry":{"type":"Point","coordinates":[-74.78761,4.314937]}},{"type":"Feature","properties":{},"geometry":{"type":"Point","coordinates":[-74.791603,4.30951]}},{"type":"Feature","geometry":{"type":"LineString","coordinates":[[-74.798588,4.307043],[-74.797872,4.306374],[-74.798727,4.305211],[-74.796152,4.303072],[-74.796577,4.301221],[-74.798629,4.299858],[-74.800671,4.299319],[-74.800913,4.297278],[-74.800576,4.296877],[-74.797956,4.297938],[-74.797659,4.297634],[-74.79598,4.298282],[-74.794909,4.298306],[-74.794713,4.298221],[-74.794751,4.300801],[-74.794536,4.303265],[-74.794668,4.30366],[-74.794367,4.304216],[-74.793826,4.304578],[-74.793154,4.305476],[-74.792855,4.306192],[-74.792515,4.306389],[-74.79172,4.306329],[-74.791263,4.30639],[-74.790079,4.307899],[-74.789848,4.308558],[-74.789682,4.308536],[-74.788139,4.306767],[-74.787103,4.304472],[-74.785935,4.303131],[-74.784801,4.303095],[-74.78361,4.302738],[-74.783007,4.302344],[-74.782835,4.301862],[-74.783504,4.301102],[-74.7834,4.300394],[-74.783205,4.299982],[-74.782978,4.29978],[-74.78283,4.299752],[-74.782513,4.299921],[-74.782291,4.30025],[-74.781153,4.3057],[-74.780642,4.30598],[-74.77976,4.306127],[-74.779009,4.306108],[-74.778549,4.306582],[-74.777962,4.307125],[-74.777257,4.307336],[-74.77651,4.307324],[-74.775805,4.306905],[-74.775446,4.306473],[-74.775945,4.305911],[-74.776617,4.30524],[-74.777133,4.303807],[-74.777098,4.302281],[-74.776576,4.300947],[-74.776302,4.300329],[-74.775825,4.300275],[-74.775517,4.30036],[-74.775134,4.300809],[-74.774459,4.301828],[-74.774321,4.302443],[-74.774531,4.303008],[-74.775131,4.303793],[-74.775357,4.305009],[-74.774494,4.30629],[-74.773541,4.30664],[-74.772614,4.307352],[-74.771619,4.308077],[-74.770529,4.308249],[-74.768861,4.309148],[-74.767018,4.310316],[-74.765673,4.31104],[-74.76489,4.311309],[-74.764574,4.311729],[-74.764078,4.312214],[-74.763504,4.312517],[-74.763004,4.312761],[-74.762547,4.312485],[-74.762152,4.31149],[-74.761666,4.311101],[-74.761195,4.311019],[-74.76089,4.311382],[-74.760726,4.311516],[-74.760506,4.311967],[-74.760379,4.312461],[-74.761169,4.313569],[-74.761776,4.314421],[-74.761916,4.315766],[-74.7614,4.317894],[-74.761438,4.319131],[-74.761868,4.320706],[-74.762577,4.321565],[-74.763793,4.3223],[-74.76483,4.322647],[-74.766244,4.32376],[-74.767668,4.324848],[-74.76896,4.325629],[-74.769945,4.326409],[-74.770463,4.326641],[-74.770997,4.325955],[-74.771301,4.325607],[-74.772393,4.325629],[-74.773195,4.325333],[-74.77443,4.324738],[-74.776018,4.325216],[-74.777395,4.326452],[-74.777663,4.327496],[-74.777367,4.328307],[-74.778667,4.32948],[-74.78055,4.328854],[-74.783496,4.326837],[-74.785024,4.325594],[-74.786585,4.323417],[-74.785729,4.322319],[-74.787895,4.321004],[-74.788701,4.320051],[-74.78964,4.318621],[-74.790696,4.317173],[-74.792116,4.315872],[-74.793158,4.315024],[-74.794038,4.312997],[-74.795775,4.310719],[-74.79738,4.309055],[-74.798405,4.307935],[-74.798608,4.307044]]},"properties":{}},{"type":"Feature","properties":{},"geometry":{"type":"Point","coordinates":[-74.792068,4.313007]}},{"type":"Feature","properties":{},"geometry":{"type":"Point","coordinates":[-74.791793,4.313216]}},{"type":"Feature","properties":{},"geometry":{"type":"Point","coordinates":[-74.78903,4.316918]}},{"type":"Feature","properties":{},"geometry":{"type":"Point","coordinates":[-74.786579,4.315598]}},{"type":"Feature","properties":{},"geometry":{"type":"Point","coordinates":[-74.787705,4.31288]}},{"type":"Feature","properties":{},"geometry":{"type":"Point","coordinates":[-74.788685,4.313913]}},{"type":"Feature","properties":{},"geometry":{"type":"Point","coordinates":[-74.785007,4.316185]}},{"type":"Feature","properties":{},"geometry":{"type":"Point","coordinates":[-74.794072,4.312015]}},{"type":"Feature","properties":{},"geometry":{"type":"Point","coordinates":[-74.797164,4.299135]}},{"type":"Feature","properties":{},"geometry":{"type":"Point","coordinates":[-74.786819,4.321292]}},{"type":"Feature","properties":{},"geometry":{"type":"Point","coordinates":[-74.78442,4.315177]}},{"type":"Feature","properties":{},"geometry":{"type":"Point","coordinates":[-74.796133,4.301405]}},{"type":"Feature","properties":{},"geometry":{"type":"Point","coordinates":[-74.796645,4.305783]}},{"type":"Feature","properties":{},"geometry":{"type":"Point","coordinates":[-74.797093,4.304124]}},{"type":"Feature","properties":{},"geometry":{"type":"Point","coordinates":[-74.791524,4.307179]}},{"type":"Feature","properties":{},"geometry":{"type":"Point","coordinates":[-74.785623,4.317601]}}]}