{
  "type": "FeatureCollection",
  "features": [
    { "type": "Feature", "properties": { "commune_code": "COM-03", "code": "COM03-BUENOS-AIRES",              "name": "Buenos Aires" },                       "geometry": { "type": "Point", "coordinates": [-74.817209, 4.295690] } },
    { "type": "Feature", "properties": { "commune_code": "COM-03", "code": "COM03-CAMBULOS-III",              "name": "Cambulos III Etapa" },                 "geometry": { "type": "Point", "coordinates": [-74.815771, 4.296862] } },
    { "type": "Feature", "properties": { "commune_code": "COM-03", "code": "COM03-CAFAM-DEL-SOL-I",           "name": "Ciudadela Cafam del Sol Etapa I" },    "geometry": { "type": "Point", "coordinates": [-74.820459, 4.291618] } },
    { "type": "Feature", "properties": { "commune_code": "COM-03", "code": "COM03-CAFAM-DEL-SOL-II",          "name": "Ciudadela Cafam del Sol Etapa II" },   "geometry": { "type": "Point", "coordinates": [-74.828124, 4.296136] } },
    { "type": "Feature", "properties": { "commune_code": "COM-03", "code": "COM03-GOLGOTA",                   "name": "Golgota" },                            "geometry": { "type": "Point", "coordinates": [-74.813481, 4.299166] } },
    { "type": "Feature", "properties": { "commune_code": "COM-03", "code": "COM03-GOLGOTA-CENTENARIO",        "name": "Golgota y Centenario" },               "geometry": { "type": "Point", "coordinates": [-74.815503, 4.300381] } },
    { "type": "Feature", "properties": { "commune_code": "COM-03", "code": "COM03-HACIENDA-GIRARDOT-I",       "name": "Hacienda Girardot I" },                "geometry": { "type": "Point", "coordinates": [-74.823339, 4.295560] } },
    { "type": "Feature", "properties": { "commune_code": "COM-03", "code": "COM03-HACIENDA-GIRARDOT-II",      "name": "Hacienda Girardot Etapa II" },         "geometry": { "type": "Point", "coordinates": [-74.820836, 4.295853] } },
    { "type": "Feature", "properties": { "commune_code": "COM-03", "code": "COM03-JORGE-ELIECER-GAITAN",      "name": "Jorge Eliecer Gaitan" },               "geometry": { "type": "Point", "coordinates": [-74.808810, 4.303216] } },
    { "type": "Feature", "properties": { "commune_code": "COM-03", "code": "COM03-LA-COLINA",                 "name": "La Colina" },                          "geometry": { "type": "Point", "coordinates": [-74.817812, 4.298916] } },
    { "type": "Feature", "properties": { "commune_code": "COM-03", "code": "COM03-LA-ESPERANZA",              "name": "La Esperanza" },                       "geometry": { "type": "Point", "coordinates": [-74.823033, 4.294599] } },
    { "type": "Feature", "properties": { "commune_code": "COM-03", "code": "COM03-LA-ESPERANZA-VI",           "name": "La Esperanza VI Etapa" },              "geometry": { "type": "Point", "coordinates": [-74.821017, 4.294925] } },
    { "type": "Feature", "properties": { "commune_code": "COM-03", "code": "COM03-LA-ESTACION",               "name": "La Estacion" },                        "geometry": { "type": "Point", "coordinates": [-74.809441, 4.299972] } },
    { "type": "Feature", "properties": { "commune_code": "COM-03", "code": "COM03-JVC-LA-MILAGROSA",          "name": "La Milagrosa" },                       "geometry": { "type": "Point", "coordinates": [-74.817933, 4.310053] } },
    { "type": "Feature", "properties": { "commune_code": "COM-03", "code": "COM03-LOS-ARRAYANES",             "name": "Los Arrayanes" },                      "geometry": { "type": "Point", "coordinates": [-74.819724, 4.291696] } },
    { "type": "Feature", "properties": { "commune_code": "COM-03", "code": "COM03-LOS-CAMBULOS",              "name": "Los Cambulos" },                       "geometry": { "type": "Point", "coordinates": [-74.814227, 4.297669] } },
    { "type": "Feature", "properties": { "commune_code": "COM-03", "code": "COM03-MENESES",                   "name": "Meneses" },                            "geometry": { "type": "Point", "coordinates": [-74.806310, 4.304850] } },
    { "type": "Feature", "properties": { "commune_code": "COM-03", "code": "COM03-NUESTRA-SENORA-DEL-CARMEN", "name": "Nuestra Senora del Carmen" },          "geometry": { "type": "Point", "coordinates": [-74.817674, 4.318373] } },
    { "type": "Feature", "properties": { "commune_code": "COM-03", "code": "COM03-JVC-NUEVO-POZO-AZUL",       "name": "Nuevo Pozo Azul" },                    "geometry": { "type": "Point", "coordinates": [-74.830493, 4.296451] } },
    { "type": "Feature", "properties": { "commune_code": "COM-03", "code": "COM03-POZO-AZUL",                 "name": "Pozo Azul" },                          "geometry": { "type": "Point", "coordinates": [-74.829436, 4.297590] } },
    { "type": "Feature", "properties": { "commune_code": "COM-03", "code": "COM03-QUINTO-PATIO",              "name": "Quinto Patio" },                       "geometry": { "type": "Point", "coordinates": [-74.819064, 4.296301] } },
    { "type": "Feature", "properties": { "commune_code": "COM-03", "code": "COM03-SAAVEDRA-GALINDO-QUINTAS-F","name": "Saavedra Galindo Quintas F" },         "geometry": { "type": "Point", "coordinates": [-74.810175, 4.303305] } },
    { "type": "Feature", "properties": { "commune_code": "COM-03", "code": "COM03-SANTA-ELENA",               "name": "Santa Elena" },                        "geometry": { "type": "Point", "coordinates": [-74.813999, 4.295546] } },
    { "type": "Feature", "properties": { "commune_code": "COM-03", "code": "COM03-SANTA-ISABEL",              "name": "Santa Isabel" },                       "geometry": { "type": "Point", "coordinates": [-74.808061, 4.309687] } },
    { "type": "Feature", "properties": { "commune_code": "COM-03", "code": "COM03-SANTA-PAULA-RESORT",        "name": "Santa Paula Resort" },                 "geometry": { "type": "Point", "coordinates": [-74.808791, 4.309215] } },
    { "type": "Feature", "properties": { "commune_code": "COM-03", "code": "COM03-VILLA-ALEXANDER",           "name": "Villa Alexander" },                    "geometry": { "type": "Point", "coordinates": [-74.817454, 4.315064] } },
    { "type": "Feature", "properties": { "commune_code": "COM-03", "code": "COM03-VILLA-CAROLINA-I",          "name": "Villa Carolina I" },                   "geometry": { "type": "Point", "coordinates": [-74.825944, 4.297331] } },
    { "type": "Feature", "properties": { "commune_code": "COM-03", "code": "COM03-VILLA-CAROLINA-II",         "name": "Villa Carolina II" },                  "geometry": { "type": "Point", "coordinates": [-74.827289, 4.296763] } },
    { "type": "Feature", "properties": { "commune_code": "COM-03", "code": "COM03-VILLA-CECILIA",             "name": "Villa Cecilia" },                      "geometry": { "type": "Point", "coordinates": [-74.817472, 4.310880] } },
    { "type": "Feature", "properties": { "commune_code": "COM-03", "code": "COM03-VILLAMPISS",                "name": "Villampiss" },                         "geometry": { "type": "Point", "coordinates": [-74.815077, 4.307259] } },
    { "type": "Feature", "properties": { "commune_code": "COM-03", "code": "COM03-VIVISOL",                   "name": "Vivisol" },                            "geometry": { "type": "Point", "coordinates": [-74.810211, 4.310273] } }
  ]
}
