{"type":"FeatureCollection","features":[{"type":"Feature","properties":{},"geometry":{"type":"LineString","coordinates":[[-74.80857,4.288406],[-74.807215,4.286782],[-74.806796,4.286315],[-74.805199,4.286026],[-74.804618,4.28601],[-74.803522,4.286621],[-74.802135,4.286782],[-74.80157,4.287216],[-74.801102,4.28728],[-74.799457,4.287859],[-74.797909,4.288567],[-74.796635,4.288648],[-74.796393,4.288744],[-74.795764,4.289419],[-74.79449,4.290851],[-74.794232,4.291719],[-74.793151,4.292556],[-74.793264,4.29307],[-74.794329,4.295145],[-74.794248,4.296448],[-74.794522,4.297734],[-74.794748,4.298329],[-74.795683,4.298281],[-74.796457,4.298153],[-74.797635,4.29767],[-74.797844,4.29796],[-74.80057,4.296802],[-74.800877,4.297236],[-74.802989,4.295322],[-74.803957,4.294437],[-74.805312,4.292604],[-74.806989,4.290497],[-74.807344,4.288985],[-74.808586,4.288374]]}},{"type":"Feature","properties":{},"geometry":{"type":"LineString","coordinates":[[-74.808676,4.288556],[-74.808914,4.289548],[-74.809332,4.290877],[-74.809491,4.291492],[-74.809412,4.29177],[-74.80973,4.292781],[-74.810128,4.293496],[-74.810804,4.29421],[-74.810168,4.295222],[-74.809133,4.296769],[-74.808775,4.297166],[-74.807542,4.299229],[-74.806428,4.301411],[-74.805572,4.308315],[-74.804239,4.308438],[-74.803194,4.304162],[-74.80274,4.304162],[-74.802775,4.304857],[-74.800719,4.305344],[-74.799255,4.306491],[-74.798418,4.307082],[-74.797825,4.306387],[-74.798732,4.30517],[-74.796082,4.30305],[-74.796605,4.301277],[-74.798627,4.299887],[-74.800719,4.29933],[-74.800913,4.297225],[-74.80278,4.295571],[-74.803989,4.294357],[-74.804994,4.292982],[-74.806958,4.29057],[-74.807381,4.289068],[-74.807967,4.288722],[-74.808719,4.2885]]}},{"type":"Feature","properties":{},"geometry":{"type":"LineString","coordinates":[[-74.804259,4.308433],[-74.8051,4.311421],[-74.805043,4.312522],[-74.808598,4.314135],[-74.808127,4.315371],[-74.818061,4.319512],[-74.818113,4.319548],[-74.818075,4.318844],[-74.818331,4.318279],[-74.818506,4.318055],[-74.819275,4.317602],[-74.819271,4.316928],[-74.819147,4.316812],[-74.819184,4.316551],[-74.818899,4.316296],[-74.818078,4.316334],[-74.821218,4.314779],[-74.822279,4.313353],[-74.823674,4.314065],[-74.823958,4.314017],[-74.824121,4.31378],[-74.823985,4.313587],[-74.823848,4.313802],[-74.822966,4.31303],[-74.824006,4.3119],[-74.824514,4.310671],[-74.824966,4.309805],[-74.82539,4.309215],[-74.825201,4.308737],[-74.825212,4.307825],[-74.825796,4.307089],[-74.825461,4.306529],[-74.82575,4.305827],[-74.826783,4.305299],[-74.827923,4.304527],[-74.827563,4.30425],[-74.827154,4.304634],[-74.826816,4.304857],[-74.826358,4.305126],[-74.82672,4.304212],[-74.827887,4.302236],[-74.828478,4.302525],[-74.828757,4.302298],[-74.828703,4.301828],[-74.829214,4.301208],[-74.82964,4.300964],[-74.829322,4.300507],[-74.829098,4.300383],[-74.829152,4.300034],[-74.829998,4.298736],[-74.830535,4.297238],[-74.830546,4.296225],[-74.830381,4.295261],[-74.829256,4.295729],[-74.82924,4.295148],[-74.828944,4.294501],[-74.828513,4.294165],[-74.827456,4.295368],[-74.826857,4.295414],[-74.826181,4.295377],[-74.825723,4.295117],[-74.825065,4.295604],[-74.826235,4.294039],[-74.825727,4.292688],[-74.82613,4.29236],[-74.823584,4.288745],[-74.822402,4.287731],[-74.82129,4.288703],[-74.820568,4.289425],[-74.819396,4.290175],[-74.818308,4.291332],[-74.817108,4.291969],[-74.81574,4.292878],[-74.815244,4.293552],[-74.813635,4.294251],[-74.812766,4.294958],[-74.811174,4.294234],[-74.810603,4.294498],[-74.809426,4.296259],[-74.808797,4.297175],[-74.807988,4.298439],[-74.806482,4.301289],[-74.805739,4.308031],[-74.804341,4.30833]]}},{"type":"Feature","properties":{},"geometry":{"type":"LineString","coordinates":[[-74.816606,4.318823],[-74.816173,4.319995],[-74.815092,4.319587],[-74.815544,4.320448],[-74.814773,4.32049],[-74.814722,4.321351],[-74.813946,4.320928],[-74.814458,4.322454],[-74.814602,4.32373],[-74.814354,4.325072],[-74.813704,4.326599],[-74.812419,4.328494],[-74.811602,4.329081],[-74.810851,4.329622],[-74.808721,4.330454],[-74.810593,4.331643],[-74.810472,4.332784],[-74.807284,4.33505],[-74.807607,4.336818],[-74.807124,4.338798],[-74.807532,4.340465],[-74.808912,4.340955],[-74.809613,4.340386],[-74.81136,4.340047],[-74.816818,4.340685],[-74.816533,4.343571],[-74.810719,4.342818],[-74.810206,4.342278],[-74.809821,4.343001],[-74.809082,4.343056],[-74.808294,4.342812],[-74.804116,4.342041],[-74.796973,4.340054],[-74.800863,4.32989],[-74.800239,4.329425],[-74.800798,4.327925],[-74.799801,4.327315],[-74.797353,4.32645],[-74.797727,4.325526],[-74.796668,4.32507],[-74.796054,4.325512],[-74.794274,4.325088],[-74.791734,4.324338],[-74.789998,4.323881],[-74.78963,4.323877],[-74.788618,4.320231],[-74.789319,4.319084],[-74.790147,4.31771],[-74.792106,4.315926],[-74.793433,4.314911],[-74.794217,4.312638],[-74.795509,4.311183],[-74.797208,4.309367],[-74.79826,4.308171],[-74.798453,4.307738],[-74.798438,4.307106],[-74.80074,4.305295],[-74.802724,4.30485],[-74.802728,4.304261],[-74.803209,4.304147],[-74.805211,4.3114],[-74.805018,4.312569],[-74.808655,4.31416],[-74.808169,4.315339],[-74.816604,4.31882]]}},{"type":"Feature","properties":{},"geometry":{"type":"LineString","coordinates":[[-74.798588,4.307043],[-74.797872,4.306374],[-74.798727,4.305211],[-74.796152,4.303072],[-74.796577,4.301221],[-74.798629,4.299858],[-74.800671,4.299319],[-74.800913,4.297278],[-74.800576,4.296877],[-74.797956,4.297938],[-74.797659,4.297634],[-74.79598,4.298282],[-74.794909,4.298306],[-74.794713,4.298221],[-74.794751,4.300801],[-74.794536,4.303265],[-74.794668,4.30366],[-74.794367,4.304216],[-74.793826,4.304578],[-74.793154,4.305476],[-74.792855,4.306192],[-74.792515,4.306389],[-74.79172,4.306329],[-74.791263,4.30639],[-74.790079,4.307899],[-74.789848,4.308558],[-74.789682,4.308536],[-74.788139,4.306767],[-74.787103,4.304472],[-74.785935,4.303131],[-74.784801,4.303095],[-74.78361,4.302738],[-74.783007,4.302344],[-74.782835,4.301862],[-74.783504,4.301102],[-74.7834,4.300394],[-74.783205,4.299982],[-74.782978,4.29978],[-74.78283,4.299752],[-74.782513,4.299921],[-74.782291,4.30025],[-74.781153,4.3057],[-74.780642,4.30598],[-74.77976,4.306127],[-74.779009,4.306108],[-74.778549,4.306582],[-74.777962,4.307125],[-74.777257,4.307336],[-74.77651,4.307324],[-74.775805,4.306905],[-74.775446,4.306473],[-74.775945,4.305911],[-74.776617,4.30524],[-74.777133,4.303807],[-74.777098,4.302281],[-74.776576,4.300947],[-74.776302,4.300329],[-74.775825,4.300275],[-74.775517,4.30036],[-74.775134,4.300809],[-74.774459,4.301828],[-74.774321,4.302443],[-74.774531,4.303008],[-74.775131,4.303793],[-74.775357,4.305009],[-74.774494,4.30629],[-74.773541,4.30664],[-74.772614,4.307352],[-74.771619,4.308077],[-74.770529,4.308249],[-74.768861,4.309148],[-74.767018,4.310316],[-74.765673,4.31104],[-74.76489,4.311309],[-74.764574,4.311729],[-74.764078,4.312214],[-74.763504,4.312517],[-74.763004,4.312761],[-74.762547,4.312485],[-74.762152,4.31149],[-74.761666,4.311101],[-74.761195,4.311019],[-74.76089,4.311382],[-74.760726,4.311516],[-74.760506,4.311967],[-74.760379,4.312461],[-74.761169,4.313569],[-74.761776,4.314421],[-74.761916,4.315766],[-74.7614,4.317894],[-74.761438,4.319131],[-74.761868,4.320706],[-74.762577,4.321565],[-74.763793,4.3223],[-74.76483,4.322647],[-74.766244,4.32376],[-74.767668,4.324848],[-74.76896,4.325629],[-74.769945,4.326409],[-74.770463,4.326641],[-74.770997,4.325955],[-74.771301,4.325607],[-74.772393,4.325629],[-74.773195,4.325333],[-74.77443,4.324738],[-74.776018,4.325216],[-74.777395,4.326452],[-74.777663,4.327496],[-74.777367,4.328307],[-74.778667,4.32948],[-74.78055,4.328854],[-74.783496,4.326837],[-74.785024,4.325594],[-74.786585,4.323417],[-74.785729,4.322319],[-74.787895,4.321004],[-74.788701,4.320051],[-74.78964,4.318621],[-74.790696,4.317173],[-74.792116,4.315872],[-74.793158,4.315024],[-74.794038,4.312997],[-74.795775,4.310719],[-74.79738,4.309055],[-74.798405,4.307935],[-74.798608,4.307044]]}}]}